[{"OBJECT_NAME":"JILIN-1 GAOFEN 03D50","OBJECT_ID":"2022-167J","EPOCH":"2026-03-09T22:35:59.947584","MEAN_MOTION":15.32279726,"ECCENTRICITY":0.00065764,"INCLINATION":97.6731,"RA_OF_ASC_NODE":232.9458,"ARG_OF_PERICENTER":101.1473,"MEAN_ANOMALY":259.0507,"EPHEMERIS_TYPE":0,"CLASSIFICATION_TYPE":"U","NORAD_CAT_ID":54690,"ELEMENT_SET_NO":999,"REV_AT_EPOCH":18014,"BSTAR":0.00049467973,"MEAN_MOTION_DOT":0.00015359,"MEAN_MOTION_DDOT":0},{"OBJECT_NAME":"STARLINK-35953","OBJECT_ID":"2025-271W","EPOCH":"2026-03-09T11:24:41.245632","MEAN_MOTION":15.30184966,"ECCENTRICITY":0.00014403,"INCLINATION":53.1578,"RA_OF_ASC_NODE":140.9441,"ARG_OF_PERICENTER":79.2591,"MEAN_ANOMALY":280.8572,"EPHEMERIS_TYPE":0,"CLASSIFICATION_TYPE":"U","NORAD_CAT_ID":66637,"ELEMENT_SET_NO":999,"REV_AT_EPOCH":1753,"BSTAR":0.00032775245,"MEAN_MOTION_DOT":9.356e-5,"MEAN_MOTION_DDOT":0}]
